{
    "links": {
        "self": "http://www.neowsapp.com/rest/v1/neo/3468530?api_key=iIulBulltgU6a56xZRHN4H3l9WmuAYTsLGpBGhQ2"
    },
    "id": "3468530",
    "neo_reference_id": "3468530",
    "name": "(2009 SP104)",
    "designation": "2009 SP104",
    "nasa_jpl_url": "http://ssd.jpl.nasa.gov/sbdb.cgi?sstr=3468530",
    "absolute_magnitude_h": 26.7,
    "estimated_diameter": {
        "kilometers": {
            "estimated_diameter_min": 0.0121494041,
            "estimated_diameter_max": 0.0271668934
        },
        "meters": {
            "estimated_diameter_min": 12.14940408,
            "estimated_diameter_max": 27.1668934089
        },
        "miles": {
            "estimated_diameter_min": 0.0075492874,
            "estimated_diameter_max": 0.0168807197
        },
        "feet": {
            "estimated_diameter_min": 39.8602508817,
            "estimated_diameter_max": 89.1302305717
        }
    },
    "is_potentially_hazardous_asteroid": false,
    "close_approach_data": [
        {
            "close_approach_date": "1999-02-05",
            "close_approach_date_full": "1999-Feb-05 14:04",
            "epoch_date_close_approach": 918223440000,
            "relative_velocity": {
                "kilometers_per_second": "10.0185221826",
                "kilometers_per_hour": "36066.6798571966",
                "miles_per_hour": "22410.4322701564"
            },
            "miss_distance": {
                "astronomical": "0.2764613254",
                "lunar": "107.5434555806",
                "kilometers": "41358025.417216898",
                "miles": "25698685.3303852724"
            },
            "orbiting_body": "Earth"
        },
        {
            "close_approach_date": "2009-09-21",
            "close_approach_date_full": "2009-Sep-21 19:23",
            "epoch_date_close_approach": 1253560980000,
            "relative_velocity": {
                "kilometers_per_second": "17.0766076663",
                "kilometers_per_hour": "61475.7875986004",
                "miles_per_hour": "38198.663688697"
            },
            "miss_distance": {
                "astronomical": "0.008782971",
                "lunar": "3.416575719",
                "kilometers": "1313913.75387177",
                "miles": "816428.148379626"
            },
            "orbiting_body": "Earth"
        }
    ],
    "orbital_data": {
        "orbit_id": "6",
        "orbit_determination_date": "2017-04-06 08:59:47",
        "first_observation_date": "2009-09-26",
        "last_observation_date": "2009-09-27",
        "data_arc_in_days": 1,
        "observations_used": 23,
        "orbit_uncertainty": "9",
        "minimum_orbit_intersection": ".00196828",
        "jupiter_tisserand_invariant": "5.545",
        "epoch_osculation": "2455101.5",
        "eccentricity": ".5325904575870007",
        "semi_major_axis": "1.090237837921398",
        "inclination": "4.751036745632298",
        "ascending_node_longitude": "177.7775396964455",
        "orbital_period": "415.7959959346815",
        "perihelion_distance": ".5095875689441784",
        "perihelion_argument": "66.74083334289709",
        "aphelion_distance": "1.670888106898618",
        "perihelion_time": "2455036.934390145673",
        "mean_anomaly": "55.9014992323522",
        "mean_motion": ".865809203358835",
        "equinox": "J2000",
        "orbit_class": {
            "orbit_class_type": "APO",
            "orbit_class_description": "Near-Earth asteroid orbits which cross the Earth’s orbit similar to that of 1862 Apollo",
            "orbit_class_range": "a (semi-major axis) > 1.0 AU; q (perihelion) < 1.017 AU"
        }
    },
    "is_sentry_object": false
}